From: horizons@ssd.jpl.nasa.gov (Horizons Ephemeris System)
Subject: [Horizons] SMALL BODY #C(500@10)_T(Kowalski (C/2011 S2)) (1/1)
Date: February 23, 2021 at 4:21:02 PM PST

Automated mail xmit by MAIL_REQUEST, PID= 22901 Tue Feb 23 16:21:02 2021
++++++++++++++++++++++++++++++++ (part 1 of 1)  +++++++++++++++++++++++++++++++
*******************************************************************************
JPL/HORIZONS                Kowalski (C/2011 S2)           2021-Feb-23 16:21:02
Rec #:90004013 (+COV) Soln.date: 2014-Jun-13_19:44:48    # obs: 342 (2011-2012)

IAU76/J2000 helio. ecliptic osc. elements (au, days, deg., period=Julian yrs):

 EPOCH=  2455857.5 ! 2011-Oct-23.0000000 (TDB)    RMSW= n.a.
  EC= .9316035444729496   QR= 1.115118144257619   TP= 2455860.8476632615
  OM= 288.0701101520695   W= 192.1899463594266    IN= 17.57253023753236
  A= 16.30374170217923    MA= 359.94987955587     ADIST= 31.49236526010084
  PER= 65.832317479521    N= .01497177            ANGMOM= .025246483
  DAN= 24.09321           DDN= 1.12738            L= 119.7071062
  B= -3.65508             MOID= .13778999         TP= 2011-Oct-26.3476632615

Comet physical (GM= km^3/s^2; RAD= km):
  GM= n.a.                RAD= n.a.
  M1=  14.8     M2=  16.8     k1=  16.    k2=  5.      PHCOF=  .030

COMET comments 
1: soln ref.= JPL#16, data arc: 2011-09-30 to 2012-03-28
2: k1=16., k2=5., phase coef.=0.03;
*******************************************************************************


*******************************************************************************
Ephemeris / MAIL_REQUEST Tue Feb 23 16:21:02 2021 Pasadena, USA  / Horizons
*******************************************************************************
Target body name: Kowalski (C/2011 S2)            {source: JPL#16}
Center body name: Sun (10)                        {source: DE431}
Center-site name: BODY CENTER
*******************************************************************************
Start time      : A.D. 1990-Jan-01 00:00:00.0000 TDB
Stop  time      : A.D. 2020-Dec-31 00:00:00.0000 TDB
Step-size       : 10080 minutes
*******************************************************************************
Center geodetic : 0.00000000,0.00000000,0.0000000 {E-lon(deg),Lat(deg),Alt(km)}
Center cylindric: 0.00000000,0.00000000,0.0000000 {E-lon(deg),Dxy(km),Dz(km)}
Center radii    : 696000.0 x 696000.0 x 696000.0 k{Equator, meridian, pole}    
Small perturbers: Yes                             {source: SB431-N16}
Output units    : AU-D
Output type     : GEOMETRIC cartesian states
Output format   : 6 (LT, range, and range-rate)
Reference frame : Ecliptic of J2000.0
*******************************************************************************
Initial IAU76/J2000 heliocentric ecliptic osculating elements (au, days, deg.):
 EPOCH=  2455857.5 ! 2011-Oct-23.0000000 (TDB)    RMSW= n.a.                  
  EC= .9316035444729496   QR= 1.115118144257619   TP= 2455860.8476632615      
  OM= 288.0701101520695   W= 192.1899463594266    IN= 17.57253023753236       
 Equivalent ICRF heliocentric equatorial cartesian coordinates (au, au/d):
  X=-4.886782876545150E-01  Y= 9.391623262084037E-01  Z= 3.541554328504255E-01
 VX=-1.894487888188214E-02 VY=-6.854259071308426E-03 VZ=-1.030041783003931E-02
Comet physical (GM= km^3/s^2; RAD= km):                                        
  GM= n.a.                RAD= n.a.                                           
  M1=  14.8     M2=  16.8     k1=  16.    k2=  5.      PHCOF=  .030           
*******************************************************************************
           JDTDB,            Calendar Date (TDB),                     LT,                     RG,                     RR,
**************************************************************************************************************************
$$SOE
2456992.500000000, A.D. 2014-Dec-01 00:00:00.0000,  5.784498864389805E-02,  1.001554931079333E+01,  5.892310316639729E-03,
2456999.500000000, A.D. 2014-Dec-08 00:00:00.0000,  5.808288041661565E-02,  1.005673899439675E+01,  5.876189766127480E-03,
2457006.500000000, A.D. 2014-Dec-15 00:00:00.0000,  5.832012276065655E-02,  1.009781623291048E+01,  5.860182954301456E-03,
2457013.500000000, A.D. 2014-Dec-22 00:00:00.0000,  5.855672025082970E-02,  1.013878181843816E+01,  5.844288721746535E-03,
2457020.500000000, A.D. 2014-Dec-29 00:00:00.0000,  5.879267741588774E-02,  1.017963653510899E+01,  5.828505963439810E-03,
2457027.500000000, A.D. 2015-Jan-05 00:00:00.0000,  5.902799874286604E-02,  1.022038115982907E+01,  5.812833747005960E-03,
2457034.500000000, A.D. 2015-Jan-12 00:00:00.0000,  5.926268868756613E-02,  1.026101646409650E+01,  5.797271482964579E-03,
2457041.500000000, A.D. 2015-Jan-19 00:00:00.0000,  5.949675168703723E-02,  1.030154321616255E+01,  5.781818701145159E-03,
2457048.500000000, A.D. 2015-Jan-26 00:00:00.0000,  5.973019213703289E-02,  1.034196217712836E+01,  5.766473499683012E-03,
2457055.500000000, A.D. 2015-Feb-02 00:00:00.0000,  5.996301431538317E-02,  1.038227408767724E+01,  5.751232303555631E-03,
2457062.500000000, A.D. 2015-Feb-09 00:00:00.0000,  6.019522237345368E-02,  1.042247966659585E+01,  5.736092820154787E-03,
2457069.500000000, A.D. 2015-Feb-16 00:00:00.0000,  6.042682040307812E-02,  1.046257962236325E+01,  5.721054133468775E-03,
2457076.500000000, A.D. 2015-Feb-23 00:00:00.0000,  6.065781246231500E-02,  1.050257465761049E+01,  5.706115356302959E-03,
2457083.500000000, A.D. 2015-Mar-02 00:00:00.0000,  6.088820256764928E-02,  1.054246546777037E+01,  5.691275324163953E-03,
2457090.500000000, A.D. 2015-Mar-09 00:00:00.0000,  6.111799468441044E-02,  1.058225273941842E+01,  5.676532690780870E-03,
2457097.500000000, A.D. 2015-Mar-16 00:00:00.0000,  6.134719272161896E-02,  1.062193714938055E+01,  5.661886031446246E-03,
2457104.500000000, A.D. 2015-Mar-23 00:00:00.0000,  6.157580053051013E-02,  1.066151936447747E+01,  5.647333926380987E-03,
2457111.500000000, A.D. 2015-Mar-30 00:00:00.0000,  6.180382190669298E-02,  1.070100004189852E+01,  5.632875065618863E-03,
2457118.500000000, A.D. 2015-Apr-06 00:00:00.0000,  6.203126059783697E-02,  1.074037983053256E+01,  5.618508422891383E-03,
2457125.500000000, A.D. 2015-Apr-13 00:00:00.0000,  6.225812031878238E-02,  1.077965937358423E+01,  5.604233393207089E-03,
2457132.500000000, A.D. 2015-Apr-20 00:00:00.0000,  6.248440475914269E-02,  1.081883930989031E+01,  5.590049073860012E-03,
2457139.500000000, A.D. 2015-Apr-27 00:00:00.0000,  6.271011753573520E-02,  1.085792026568331E+01,  5.575952621142115E-03,
2457146.500000000, A.D. 2015-May-04 00:00:00.0000,  6.293526213074867E-02,  1.089690284388551E+01,  5.561940812350994E-03,
2457153.500000000, A.D. 2015-May-11 00:00:00.0000,  6.315984193435827E-02,  1.093578763148754E+01,  5.548012353388657E-03,
2457160.500000000, A.D. 2015-May-18 00:00:00.0000,  6.338386030668235E-02,  1.097457521027588E+01,  5.534166792811539E-03,
2457167.500000000, A.D. 2015-May-25 00:00:00.0000,  6.360732058917433E-02,  1.101326615880524E+01,  5.520403607162164E-03,
2457174.500000000, A.D. 2015-Jun-01 00:00:00.0000,  6.383022609927541E-02,  1.105186105147275E+01,  5.506722147992099E-03,
2457181.500000000, A.D. 2015-Jun-08 00:00:00.0000,  6.405258012741324E-02,  1.109036045799831E+01,  5.493121742460002E-03,
2457188.500000000, A.D. 2015-Jun-15 00:00:00.0000,  6.427438593760940E-02,  1.112876494352974E+01,  5.479601767406765E-03,
2457195.500000000, A.D. 2015-Jun-22 00:00:00.0000,  6.449564677076079E-02,  1.116707506921093E+01,  5.466161714593792E-03,
2457202.500000000, A.D. 2015-Jun-29 00:00:00.0000,  6.471636585120351E-02,  1.120529139331838E+01,  5.452801297049253E-03,
2457209.500000000, A.D. 2015-Jul-06 00:00:00.0000,  6.493654639905476E-02,  1.124341447339810E+01,  5.439520622026589E-03,
2457216.500000000, A.D. 2015-Jul-13 00:00:00.0000,  6.515619164668394E-02,  1.128144486911750E+01,  5.426320096249724E-03,
2457223.500000000, A.D. 2015-Jul-20 00:00:00.0000,  6.537530482783337E-02,  1.131938314038170E+01,  5.413199035266465E-03,
2457230.500000000, A.D. 2015-Jul-27 00:00:00.0000,  6.559388910556344E-02,  1.135722983485764E+01,  5.400154845103988E-03,
2457237.500000000, A.D. 2015-Aug-03 00:00:00.0000,  6.581194754638127E-02,  1.139498548349456E+01,  5.387185835826693E-03,
2457244.500000000, A.D. 2015-Aug-10 00:00:00.0000,  6.602948318511283E-02,  1.143265061175629E+01,  5.374291910792223E-03,
2457251.500000000, A.D. 2015-Aug-17 00:00:00.0000,  6.624649905989040E-02,  1.147022574567913E+01,  5.361473161092116E-03,
2457258.500000000, A.D. 2015-Aug-24 00:00:00.0000,  6.646299820723037E-02,  1.150771141101959E+01,  5.348729407736581E-03,
2457265.500000000, A.D. 2015-Aug-31 00:00:00.0000,  6.667898365171994E-02,  1.154510813146873E+01,  5.336060256560679E-03,
2457272.500000000, A.D. 2015-Sep-07 00:00:00.0000,  6.689445839921417E-02,  1.158241642747419E+01,  5.323465187404111E-03,
2457279.500000000, A.D. 2015-Sep-14 00:00:00.0000,  6.710942543312645E-02,  1.161963681559800E+01,  5.310943621144589E-03,
2457286.500000000, A.D. 2015-Sep-21 00:00:00.0000,  6.732388771356532E-02,  1.165676980836707E+01,  5.298495001743658E-03,
2457293.500000000, A.D. 2015-Sep-28 00:00:00.0000,  6.753784818098833E-02,  1.169381591490584E+01,  5.286118945373455E-03,
2457300.500000000, A.D. 2015-Oct-05 00:00:00.0000,  6.775130976695039E-02,  1.173077564279730E+01,  5.273815404268005E-03,
2457307.500000000, A.D. 2015-Oct-12 00:00:00.0000,  6.796427540173496E-02,  1.176764949940431E+01,  5.261584146266069E-03,
2457314.500000000, A.D. 2015-Oct-19 00:00:00.0000,  6.817674797240669E-02,  1.180443798460662E+01,  5.249423022348431E-03,
2457321.500000000, A.D. 2015-Oct-26 00:00:00.0000,  6.838873024768408E-02,  1.184114157779297E+01,  5.237328870472236E-03,
2457328.500000000, A.D. 2015-Nov-02 00:00:00.0000,  6.860022489929775E-02,  1.187776074155918E+01,  5.225300217567681E-03,
2457335.500000000, A.D. 2015-Nov-09 00:00:00.0000,  6.881123456422761E-02,  1.191429593248418E+01,  5.213336547748475E-03,
